BEIDOU-3 IGSO-3 (C40)   
1 44709U 19073A   24168.74253630 -.00000213  00000+0  00000+0 0  9990
2 44709  56.0508 288.7317 0039066 181.7231 178.2331  1.00249659 17136
BEIDOU-3 M22 (C44)      
1 44793U 19078A   24168.82967007 -.00000087  00000+0  00000+0 0  9996
2 44793  54.5638 325.3760 0006082  33.5844 326.4482  1.86232333 31047
BEIDOU-3 M21 (C43)      
1 44794U 19078B   24168.95945934 -.00000086  00000+0  00000+0 0  9995
2 44794  54.5375 325.3476 0003936  32.5252 327.4930  1.86232783 31056
BEIDOU-3 M19 (C41)      
1 44864U 19090A   24169.53630722 -.00000047  00000+0  00000+0 0  9995
2 44864  55.9274  87.0398 0017971 285.2660 294.3390  1.86231915 30648
BEIDOU-3 M20 (C42)      
1 44865U 19090B   24169.40663448 -.00000047  00000+0  00000+0 0  9993
2 44865  55.9292  87.0775 0016015 298.7268 283.6716  1.86231836 30622
BEIDOU-3 G2 (C60)       
1 45344U 20017A   24170.17290851 -.00000121  00000+0  00000+0 0  9990
2 45344   2.3168  29.6838 0001551 101.7070 277.7963  1.00271592 15965
BEIDOU-3 G3 (C61)       
1 45807U 20040A   24169.84146535 -.00000332  00000+0  00000+0 0  9995
2 45807   0.7780  42.4494 0005029 284.8991 352.7396  1.00271441 14776
GSAT0223 (PRN E34)      
1 49809U 21116A   24168.69592726 -.00000076  00000+0  00000+0 0  9990
2 49809  57.2972   1.3785 0001414 138.8135 222.5081  1.70476110 15730
GSAT0224 (PRN E10)      
1 49810U 21116B   24166.45901503 -.00000084  00000+0  00000+0 0  9990
2 49810  57.2984   1.4370 0001520 119.0214  61.9622  1.70476144 15714
GALAXY 30 (G-30)        
1 46114U 20056C   24169.87619395  .00000059  00000+0  00000+0 0  9991
2 46114   0.0183  16.8811 0002423  65.0541  15.1074  1.00270317 13987
QZS-1R                  
1 49336U 21096A   24168.67895785 -.00000254  00000+0  00000+0 0  9999
2 49336  35.9435  90.5371 0756316 271.5165 281.9945  1.00259837  9682
COSMOS 2544 (759)       
1 44850U 19088A   24169.32834798 -.00000017  00000+0  00000+0 0  9990
2 44850  65.1905  98.1607 0013612 260.7196  99.1185  2.13102168 35166
COSMOS 2545 (760)       
1 45358U 20018A   24169.05607782 -.00000052  00000+0  00000+0 0  9999
2 45358  64.7459 337.9590 0007469 237.3185 122.6209  2.13102681 33106
COSMOS 2547 (705K)      
1 46805U 20075A   24169.24340154  .00000079  00000+0  00000+0 0  9996
2 46805  64.5994 216.8728 0008677 240.9908 119.0059  2.13103179 28356
GPS BIII-3  (PRN 23)    
1 45854U 20041A   24169.65591542 -.00000072  00000+0  00000+0 0  9990
2 45854  56.1225  57.4089 0042885 192.8965  51.8417  2.00558879 29404
GPS BIII-4  (PRN 14)    
1 46826U 20078A   24169.92306172  .00000031  00000+0  00000+0 0  9997
2 46826  54.1797 240.3792 0046525 197.1159 219.0005  2.00560335 26888
GPS BIII-5  (PRN 11)    
1 48859U 21054A   24169.60213626 -.00000078  00000+0  00000+0 0  9998
2 48859  55.3659   1.7185 0014905 218.4933 150.6773  2.00558324 22125
