[{"OBJECT_NAME":"BEIDOU-3 IGSO-3 (C40)","OBJECT_ID":"2019-073A","EPOCH":"2024-06-16T17:49:15.136320","MEAN_MOTION":1.00249659,"ECCENTRICITY":0.0039066,"INCLINATION":56.0508,"RA_OF_ASC_NODE":288.7317,"ARG_OF_PERICENTER":181.7231,"MEAN_ANOMALY":178.2331,"EPHEMERIS_TYPE":0,"CLASSIFICATION_TYPE":"U","NORAD_CAT_ID":44709,"ELEMENT_SET_NO":999,"REV_AT_EPOCH":1713,"BSTAR":0,"MEAN_MOTION_DOT":-2.13e-6,"MEAN_MOTION_DDOT":0},{"OBJECT_NAME":"BEIDOU-3 M22 (C44)","OBJECT_ID":"2019-078A","EPOCH":"2024-06-16T19:54:43.494048","MEAN_MOTION":1.86232333,"ECCENTRICITY":0.0006082,"INCLINATION":54.5638,"RA_OF_ASC_NODE":325.376,"ARG_OF_PERICENTER":33.5844,"MEAN_ANOMALY":326.4482,"EPHEMERIS_TYPE":0,"CLASSIFICATION_TYPE":"U","NORAD_CAT_ID":44793,"ELEMENT_SET_NO":999,"REV_AT_EPOCH":3104,"BSTAR":0,"MEAN_MOTION_DOT":-8.7e-7,"MEAN_MOTION_DDOT":0},{"OBJECT_NAME":"BEIDOU-3 M21 (C43)","OBJECT_ID":"2019-078B","EPOCH":"2024-06-16T23:01:37.286976","MEAN_MOTION":1.86232783,"ECCENTRICITY":0.0003936,"INCLINATION":54.5375,"RA_OF_ASC_NODE":325.3476,"ARG_OF_PERICENTER":32.5252,"MEAN_ANOMALY":327.493,"EPHEMERIS_TYPE":0,"CLASSIFICATION_TYPE":"U","NORAD_CAT_ID":44794,"ELEMENT_SET_NO":999,"REV_AT_EPOCH":3105,"BSTAR":0,"MEAN_MOTION_DOT":-8.6e-7,"MEAN_MOTION_DDOT":0},{"OBJECT_NAME":"COSMOS 2544 (759)","OBJECT_ID":"2019-088A","EPOCH":"2024-06-17T07:52:49.265472","MEAN_MOTION":2.13102168,"ECCENTRICITY":0.0013612,"INCLINATION":65.1905,"RA_OF_ASC_NODE":98.1607,"ARG_OF_PERICENTER":260.7196,"MEAN_ANOMALY":99.1185,"EPHEMERIS_TYPE":0,"CLASSIFICATION_TYPE":"U","NORAD_CAT_ID":44850,"ELEMENT_SET_NO":999,"REV_AT_EPOCH":3516,"BSTAR":0,"MEAN_MOTION_DOT":-1.7e-7,"MEAN_MOTION_DDOT":0},{"OBJECT_NAME":"BEIDOU-3 M19 (C41)","OBJECT_ID":"2019-090A","EPOCH":"2024-06-17T12:52:16.943808","MEAN_MOTION":1.86231915,"ECCENTRICITY":0.0017971,"INCLINATION":55.9274,"RA_OF_ASC_NODE":87.0398,"ARG_OF_PERICENTER":285.266,"MEAN_ANOMALY":294.339,"EPHEMERIS_TYPE":0,"CLASSIFICATION_TYPE":"U","NORAD_CAT_ID":44864,"ELEMENT_SET_NO":999,"REV_AT_EPOCH":3064,"BSTAR":0,"MEAN_MOTION_DOT":-4.7e-7,"MEAN_MOTION_DDOT":0},{"OBJECT_NAME":"BEIDOU-3 M20 (C42)","OBJECT_ID":"2019-090B","EPOCH":"2024-06-17T09:45:33.219072","MEAN_MOTION":1.86231836,"ECCENTRICITY":0.0016015,"INCLINATION":55.9292,"RA_OF_ASC_NODE":87.0775,"ARG_OF_PERICENTER":298.7268,"MEAN_ANOMALY":283.6716,"EPHEMERIS_TYPE":0,"CLASSIFICATION_TYPE":"U","NORAD_CAT_ID":44865,"ELEMENT_SET_NO":999,"REV_AT_EPOCH":3062,"BSTAR":0,"MEAN_MOTION_DOT":-4.7e-7,"MEAN_MOTION_DDOT":0},{"OBJECT_NAME":"BEIDOU-3 G2 (C60)","OBJECT_ID":"2020-017A","EPOCH":"2024-06-18T04:08:59.295264","MEAN_MOTION":1.00271592,"ECCENTRICITY":0.0001551,"INCLINATION":2.3168,"RA_OF_ASC_NODE":29.6838,"ARG_OF_PERICENTER":101.707,"MEAN_ANOMALY":277.7963,"EPHEMERIS_TYPE":0,"CLASSIFICATION_TYPE":"U","NORAD_CAT_ID":45344,"ELEMENT_SET_NO":999,"REV_AT_EPOCH":1596,"BSTAR":0,"MEAN_MOTION_DOT":-1.21e-6,"MEAN_MOTION_DDOT":0},{"OBJECT_NAME":"COSMOS 2545 (760)","OBJECT_ID":"2020-018A","EPOCH":"2024-06-17T01:20:45.123648","MEAN_MOTION":2.13102681,"ECCENTRICITY":0.0007469,"INCLINATION":64.7459,"RA_OF_ASC_NODE":337.959,"ARG_OF_PERICENTER":237.3185,"MEAN_ANOMALY":122.6209,"EPHEMERIS_TYPE":0,"CLASSIFICATION_TYPE":"U","NORAD_CAT_ID":45358,"ELEMENT_SET_NO":999,"REV_AT_EPOCH":3310,"BSTAR":0,"MEAN_MOTION_DOT":-5.2e-7,"MEAN_MOTION_DDOT":0},{"OBJECT_NAME":"BEIDOU-3 G3 (C61)","OBJECT_ID":"2020-040A","EPOCH":"2024-06-17T20:11:42.606240","MEAN_MOTION":1.00271441,"ECCENTRICITY":0.0005029,"INCLINATION":0.778,"RA_OF_ASC_NODE":42.4494,"ARG_OF_PERICENTER":284.8991,"MEAN_ANOMALY":352.7396,"EPHEMERIS_TYPE":0,"CLASSIFICATION_TYPE":"U","NORAD_CAT_ID":45807,"ELEMENT_SET_NO":999,"REV_AT_EPOCH":1477,"BSTAR":0,"MEAN_MOTION_DOT":-3.32e-6,"MEAN_MOTION_DDOT":0},{"OBJECT_NAME":"GPS BIII-3  (PRN 23)","OBJECT_ID":"2020-041A","EPOCH":"2024-06-17T15:44:31.092288","MEAN_MOTION":2.00558879,"ECCENTRICITY":0.0042885,"INCLINATION":56.1225,"RA_OF_ASC_NODE":57.4089,"ARG_OF_PERICENTER":192.8965,"MEAN_ANOMALY":51.8417,"EPHEMERIS_TYPE":0,"CLASSIFICATION_TYPE":"U","NORAD_CAT_ID":45854,"ELEMENT_SET_NO":999,"REV_AT_EPOCH":2940,"BSTAR":0,"MEAN_MOTION_DOT":-7.2e-7,"MEAN_MOTION_DDOT":0},{"OBJECT_NAME":"GALAXY 30 (WAAS\/PRN 135)","OBJECT_ID":"2020-056C","EPOCH":"2024-06-17T21:01:43.157280","MEAN_MOTION":1.00270317,"ECCENTRICITY":0.0002423,"INCLINATION":0.0183,"RA_OF_ASC_NODE":16.8811,"ARG_OF_PERICENTER":65.0541,"MEAN_ANOMALY":15.1074,"EPHEMERIS_TYPE":0,"CLASSIFICATION_TYPE":"U","NORAD_CAT_ID":46114,"ELEMENT_SET_NO":999,"REV_AT_EPOCH":1398,"BSTAR":0,"MEAN_MOTION_DOT":5.9e-7,"MEAN_MOTION_DDOT":0},{"OBJECT_NAME":"COSMOS 2547 (705K)","OBJECT_ID":"2020-075A","EPOCH":"2024-06-17T05:50:29.893056","MEAN_MOTION":2.13103179,"ECCENTRICITY":0.0008677,"INCLINATION":64.5994,"RA_OF_ASC_NODE":216.8728,"ARG_OF_PERICENTER":240.9908,"MEAN_ANOMALY":119.0059,"EPHEMERIS_TYPE":0,"CLASSIFICATION_TYPE":"U","NORAD_CAT_ID":46805,"ELEMENT_SET_NO":999,"REV_AT_EPOCH":2835,"BSTAR":0,"MEAN_MOTION_DOT":7.9e-7,"MEAN_MOTION_DDOT":0},{"OBJECT_NAME":"GPS BIII-4  (PRN 14)","OBJECT_ID":"2020-078A","EPOCH":"2024-06-17T22:09:12.532608","MEAN_MOTION":2.00560335,"ECCENTRICITY":0.0046525,"INCLINATION":54.1797,"RA_OF_ASC_NODE":240.3792,"ARG_OF_PERICENTER":197.1159,"MEAN_ANOMALY":219.0005,"EPHEMERIS_TYPE":0,"CLASSIFICATION_TYPE":"U","NORAD_CAT_ID":46826,"ELEMENT_SET_NO":999,"REV_AT_EPOCH":2688,"BSTAR":0,"MEAN_MOTION_DOT":3.1e-7,"MEAN_MOTION_DDOT":0},{"OBJECT_NAME":"GPS BIII-5  (PRN 11)","OBJECT_ID":"2021-054A","EPOCH":"2024-06-17T14:27:04.572864","MEAN_MOTION":2.00558324,"ECCENTRICITY":0.0014905,"INCLINATION":55.3659,"RA_OF_ASC_NODE":1.7185,"ARG_OF_PERICENTER":218.4933,"MEAN_ANOMALY":150.6773,"EPHEMERIS_TYPE":0,"CLASSIFICATION_TYPE":"U","NORAD_CAT_ID":48859,"ELEMENT_SET_NO":999,"REV_AT_EPOCH":2212,"BSTAR":0,"MEAN_MOTION_DOT":-7.8e-7,"MEAN_MOTION_DDOT":0},{"OBJECT_NAME":"QZS-1R (QZSS\/PRN 196)","OBJECT_ID":"2021-096A","EPOCH":"2024-06-16T16:17:41.958240","MEAN_MOTION":1.00259837,"ECCENTRICITY":0.0756316,"INCLINATION":35.9435,"RA_OF_ASC_NODE":90.5371,"ARG_OF_PERICENTER":271.5165,"MEAN_ANOMALY":281.9945,"EPHEMERIS_TYPE":0,"CLASSIFICATION_TYPE":"U","NORAD_CAT_ID":49336,"ELEMENT_SET_NO":999,"REV_AT_EPOCH":968,"BSTAR":0,"MEAN_MOTION_DOT":-2.54e-6,"MEAN_MOTION_DDOT":0},{"OBJECT_NAME":"GSAT0223 (PRN E34)","OBJECT_ID":"2021-116A","EPOCH":"2024-06-16T16:42:08.115264","MEAN_MOTION":1.7047611,"ECCENTRICITY":0.0001414,"INCLINATION":57.2972,"RA_OF_ASC_NODE":1.3785,"ARG_OF_PERICENTER":138.8135,"MEAN_ANOMALY":222.5081,"EPHEMERIS_TYPE":0,"CLASSIFICATION_TYPE":"U","NORAD_CAT_ID":49809,"ELEMENT_SET_NO":999,"REV_AT_EPOCH":1573,"BSTAR":0,"MEAN_MOTION_DOT":-7.6e-7,"MEAN_MOTION_DDOT":0},{"OBJECT_NAME":"GSAT0224 (PRN E10)","OBJECT_ID":"2021-116B","EPOCH":"2024-06-14T11:00:58.898592","MEAN_MOTION":1.70476144,"ECCENTRICITY":0.000152,"INCLINATION":57.2984,"RA_OF_ASC_NODE":1.437,"ARG_OF_PERICENTER":119.0214,"MEAN_ANOMALY":61.9622,"EPHEMERIS_TYPE":0,"CLASSIFICATION_TYPE":"U","NORAD_CAT_ID":49810,"ELEMENT_SET_NO":999,"REV_AT_EPOCH":1571,"BSTAR":0,"MEAN_MOTION_DOT":-8.4e-7,"MEAN_MOTION_DDOT":0}]
